start=new Date('2022-03-01T00:00:00.000Z').valueOf();
sats=[{"DECAY_DATE":null,"ELEMENT_SET_NO":"999","CLASSIFICATION_TYPE":"U","SITE":"AFETR","MEAN_ANOMALY":"46.2168","ECCENTRICITY":"0.00072930","EPOCH":"2022-02-28T12:42:47.926368","RA_OF_ASC_NODE":"79.3159","LAUNCH_DATE":"2020-04-22","INCLINATION":"53.0490","OBJECT_NAME":"STARLINK-1367","MEAN_MOTION_DDOT":"0.0000000000000","MEAN_MOTION_DOT":"0.00000807","PERIOD":"91.328","SEMIMAJOR_AXIS":"6717.856","CENTER_NAME":"EARTH","GP_ID":"197367157","PERIAPSIS":"334.821","MEAN_MOTION":"15.76727896","ARG_OF_PERICENTER":"313.8248","TIME_SYSTEM":"UTC","REF_FRAME":"TEME","TLE_LINE1":"1 45539U 20025J   22059.52972137  .00000807  00000-0  89871-5 0  9992","BSTAR":"0.00000898710000","MEAN_ELEMENT_THEORY":"SGP4","EPHEMERIS_TYPE":"0","RCS_SIZE":"LARGE","OBJECT_ID":"2020-025J","OBJECT_TYPE":"PAYLOAD","REV_AT_EPOCH":"10494","APOAPSIS":"344.620","NORAD_CAT_ID":"45539","COUNTRY_CODE":"US","FILE":"3333794","TLE_LINE2":"2 45539  53.0490  79.3159 0007293 313.8248  46.2168 15.76727896104946"},{"INCLINATION":"53.0516","LAUNCH_DATE":"2020-04-22","RA_OF_ASC_NODE":"225.1000","EPOCH":"2022-02-28T19:44:13.519680","ECCENTRICITY":"0.00013960","MEAN_ANOMALY":"286.8083","SITE":"AFETR","ELEMENT_SET_NO":"999","CLASSIFICATION_TYPE":"U","DECAY_DATE":null,"TLE_LINE2":"2 45540  53.0516 225.1000 0001396  73.3060 286.8083 15.06409744103546","FILE":"3334872","COUNTRY_CODE":"US","APOAPSIS":"548.150","NORAD_CAT_ID":"45540","REV_AT_EPOCH":"10354","OBJECT_TYPE":"PAYLOAD","OBJECT_ID":"2020-025K","RCS_SIZE":"LARGE","MEAN_ELEMENT_THEORY":"SGP4","EPHEMERIS_TYPE":"0","BSTAR":"0.00022965000000","TLE_LINE1":"1 45540U 20025K   22059.82237870  .00003142  00000-0  22965-3 0  9999","REF_FRAME":"TEME","ARG_OF_PERICENTER":"73.3060","TIME_SYSTEM":"UTC","CENTER_NAME":"EARTH","GP_ID":"197409088","PERIAPSIS":"546.217","MEAN_MOTION":"15.06409744","SEMIMAJOR_AXIS":"6925.319","PERIOD":"95.592","MEAN_MOTION_DOT":"0.00003142","MEAN_MOTION_DDOT":"0.0000000000000","OBJECT_NAME":"STARLINK-1368"},{"EPOCH":"2022-02-28T19:49:32.472192","RA_OF_ASC_NODE":"225.0876","LAUNCH_DATE":"2020-04-22","INCLINATION":"53.0543","DECAY_DATE":null,"ELEMENT_SET_NO":"999","CLASSIFICATION_TYPE":"U","SITE":"AFETR","MEAN_ANOMALY":"301.1872","ECCENTRICITY":"0.00019510","RCS_SIZE":"LARGE","OBJECT_ID":"2020-025L","OBJECT_TYPE":"PAYLOAD","REV_AT_EPOCH":"10354","COUNTRY_CODE":"US","APOAPSIS":"548.543","NORAD_CAT_ID":"45541","TLE_LINE2":"2 45541  53.0543 225.0876 0001951  58.9308 301.1872 15.06406954103545","FILE":"3334872","MEAN_MOTION_DOT":"0.00000427","MEAN_MOTION_DDOT":"0.0000000000000","OBJECT_NAME":"STARLINK-1369","SEMIMAJOR_AXIS":"6925.327","PERIOD":"95.592","GP_ID":"197409838","PERIAPSIS":"545.841","CENTER_NAME":"EARTH","MEAN_MOTION":"15.06406954","REF_FRAME":"TEME","ARG_OF_PERICENTER":"58.9308","TIME_SYSTEM":"UTC","BSTAR":"0.00004758400000","TLE_LINE1":"1 45541U 20025L   22059.82607028  .00000427  00000-0  47584-4 0  9994","EPHEMERIS_TYPE":"0","MEAN_ELEMENT_THEORY":"SGP4"},{"REF_FRAME":"TEME","TIME_SYSTEM":"UTC","ARG_OF_PERICENTER":"75.1097","GP_ID":"197408586","PERIAPSIS":"546.258","CENTER_NAME":"EARTH","MEAN_MOTION":"15.06402305","SEMIMAJOR_AXIS":"6925.341","PERIOD":"95.592","MEAN_MOTION_DOT":"0.00001592","OBJECT_NAME":"STARLINK-1371","MEAN_MOTION_DDOT":"0.0000000000000","MEAN_ELEMENT_THEORY":"SGP4","EPHEMERIS_TYPE":"0","BSTAR":"0.00012572000000","TLE_LINE1":"1 45542U 20025M   22059.85923952  .00001592  00000-0  12572-3 0  9997","OBJECT_ID":"2020-025M","RCS_SIZE":"LARGE","TLE_LINE2":"2 45542  53.0541 224.9473 0001370  75.1097 285.0043 15.06402305103553","FILE":"3334872","COUNTRY_CODE":"US","APOAPSIS":"548.155","NORAD_CAT_ID":"45542","REV_AT_EPOCH":"10355","OBJECT_TYPE":"PAYLOAD","ELEMENT_SET_NO":"999","CLASSIFICATION_TYPE":"U","DECAY_DATE":null,"ECCENTRICITY":"0.00013700","MEAN_ANOMALY":"285.0043","SITE":"AFETR","EPOCH":"2022-02-28T20:37:18.294528","INCLINATION":"53.0541","LAUNCH_DATE":"2020-04-22","RA_OF_ASC_NODE":"224.9473"},{"RCS_SIZE":"LARGE","OBJECT_ID":"2020-025N","OBJECT_TYPE":"PAYLOAD","REV_AT_EPOCH":"10265","COUNTRY_CODE":"US","NORAD_CAT_ID":"45543","APOAPSIS":"548.279","TLE_LINE2":"2 45543  53.0552 224.7749 0001543  69.1316 290.9838 15.06400973102655","FILE":"3334872","MEAN_MOTION_DOT":"0.00001750","OBJECT_NAME":"STARLINK-1372","MEAN_MOTION_DDOT":"0.0000000000000","SEMIMAJOR_AXIS":"6925.346","PERIOD":"95.592","GP_ID":"197408836","PERIAPSIS":"546.142","MEAN_MOTION":"15.06400973","CENTER_NAME":"EARTH","REF_FRAME":"TEME","TIME_SYSTEM":"UTC","ARG_OF_PERICENTER":"69.1316","BSTAR":"0.00013633000000","TLE_LINE1":"1 45543U 20025N   22059.89610149  .00001750  00000-0  13633-3 0  9998","MEAN_ELEMENT_THEORY":"SGP4","EPHEMERIS_TYPE":"0","EPOCH":"2022-02-28T21:30:23.168736","RA_OF_ASC_NODE":"224.7749","LAUNCH_DATE":"2020-04-22","INCLINATION":"53.0552","DECAY_DATE":null,"ELEMENT_SET_NO":"999","CLASSIFICATION_TYPE":"U","SITE":"AFETR","MEAN_ANOMALY":"290.9838","ECCENTRICITY":"0.00015430"},{"PERIOD":"95.592","SEMIMAJOR_AXIS":"6925.350","MEAN_MOTION_DDOT":"0.0000000000000","OBJECT_NAME":"STARLINK-1373","MEAN_MOTION_DOT":"0.00000278","ARG_OF_PERICENTER":"91.0701","TIME_SYSTEM":"UTC","REF_FRAME":"TEME","PERIAPSIS":"546.333","GP_ID":"197409588","CENTER_NAME":"EARTH","MEAN_MOTION":"15.06399618","TLE_LINE1":"1 45544U 20025P   22059.71549675  .00000278  00000-0  37537-4 0  9999","BSTAR":"0.00003753700000","MEAN_ELEMENT_THEORY":"SGP4","EPHEMERIS_TYPE":"0","OBJECT_ID":"2020-025P","RCS_SIZE":"LARGE","REV_AT_EPOCH":"10353","OBJECT_TYPE":"PAYLOAD","FILE":"3334872","TLE_LINE2":"2 45544  53.0538 225.5947 0001273  91.0701 269.0434 15.06399618103531","NORAD_CAT_ID":"45544","APOAPSIS":"548.096","COUNTRY_CODE":"US","ELEMENT_SET_NO":"999","CLASSIFICATION_TYPE":"U","DECAY_DATE":null,"SITE":"AFETR","ECCENTRICITY":"0.00012730","MEAN_ANOMALY":"269.0434","EPOCH":"2022-02-28T17:10:18.919200","LAUNCH_DATE":"2020-04-22","RA_OF_ASC_NODE":"225.5947","INCLINATION":"53.0538"},{"REF_FRAME":"TEME","ARG_OF_PERICENTER":"81.6420","TIME_SYSTEM":"UTC","GP_ID":"197409339","CENTER_NAME":"EARTH","PERIAPSIS":"546.096","MEAN_MOTION":"15.06402048","SEMIMAJOR_AXIS":"6925.342","PERIOD":"95.592","MEAN_MOTION_DOT":"0.00000508","OBJECT_NAME":"STARLINK-1374","MEAN_MOTION_DDOT":"0.0000000000000","EPHEMERIS_TYPE":"0","MEAN_ELEMENT_THEORY":"SGP4","BSTAR":"0.00005297500000","TLE_LINE1":"1 45545U 20025Q   22059.86661558  .00000508  00000-0  52975-4 0  9990","OBJECT_ID":"2020-025Q","RCS_SIZE":"LARGE","FILE":"3334872","TLE_LINE2":"2 45545  53.0533 224.9099 0001604  81.6420 278.4751 15.06402048103537","COUNTRY_CODE":"US","NORAD_CAT_ID":"45545","APOAPSIS":"548.318","REV_AT_EPOCH":"10353","OBJECT_TYPE":"PAYLOAD","ELEMENT_SET_NO":"999","CLASSIFICATION_TYPE":"U","DECAY_DATE":null,"ECCENTRICITY":"0.00016040","MEAN_ANOMALY":"278.4751","SITE":"AFETR","EPOCH":"2022-02-28T20:47:55.586112","INCLINATION":"53.0533","LAUNCH_DATE":"2020-04-22","RA_OF_ASC_NODE":"224.9099"},{"EPHEMERIS_TYPE":"0","MEAN_ELEMENT_THEORY":"SGP4","BSTAR":"0.00004916700000","TLE_LINE1":"1 45546U 20025R   22059.87767776  .00000451  00000-0  49167-4 0  9997","REF_FRAME":"TEME","TIME_SYSTEM":"UTC","ARG_OF_PERICENTER":"82.8646","PERIAPSIS":"546.223","GP_ID":"197408087","CENTER_NAME":"EARTH","MEAN_MOTION":"15.06391937","SEMIMAJOR_AXIS":"6925.373","PERIOD":"95.593","MEAN_MOTION_DOT":"0.00000451","MEAN_MOTION_DDOT":"0.0000000000000","OBJECT_NAME":"STARLINK-1375","TLE_LINE2":"2 45546  53.0552 224.8501 0001466  82.8646 277.2510 15.06391937103551","FILE":"3334872","COUNTRY_CODE":"US","APOAPSIS":"548.254","NORAD_CAT_ID":"45546","REV_AT_EPOCH":"10355","OBJECT_TYPE":"PAYLOAD","OBJECT_ID":"2020-025R","RCS_SIZE":"LARGE","ECCENTRICITY":"0.00014660","MEAN_ANOMALY":"277.2510","SITE":"AFETR","ELEMENT_SET_NO":"999","CLASSIFICATION_TYPE":"U","DECAY_DATE":null,"INCLINATION":"53.0552","LAUNCH_DATE":"2020-04-22","RA_OF_ASC_NODE":"224.8501","EPOCH":"2022-02-28T21:03:51.358464"},{"MEAN_MOTION_DDOT":"0.0000000000000","OBJECT_NAME":"STARLINK-1377","MEAN_MOTION_DOT":"-0.00000091","PERIOD":"95.592","SEMIMAJOR_AXIS":"6925.351","GP_ID":"197408337","PERIAPSIS":"546.261","MEAN_MOTION":"15.06399059","CENTER_NAME":"EARTH","TIME_SYSTEM":"UTC","ARG_OF_PERICENTER":"69.4843","REF_FRAME":"TEME","TLE_LINE1":"1 45547U 20025S   22059.87399340 -.00000091  00000-0  12784-4 0  9992","BSTAR":"0.00001278400000","EPHEMERIS_TYPE":"0","MEAN_ELEMENT_THEORY":"SGP4","RCS_SIZE":"LARGE","OBJECT_ID":"2020-025S","OBJECT_TYPE":"PAYLOAD","REV_AT_EPOCH":"10356","NORAD_CAT_ID":"45547","APOAPSIS":"548.172","COUNTRY_CODE":"US","TLE_LINE2":"2 45547  53.0554 224.8643 0001380  69.4843 290.6294 15.06399059103568","FILE":"3334872","DECAY_DATE":null,"CLASSIFICATION_TYPE":"U","ELEMENT_SET_NO":"999","SITE":"AFETR","MEAN_ANOMALY":"290.6294","ECCENTRICITY":"0.00013800","EPOCH":"2022-02-28T20:58:33.029760","RA_OF_ASC_NODE":"224.8643","LAUNCH_DATE":"2020-04-22","INCLINATION":"53.0554"},{"LAUNCH_DATE":"2020-04-22","RA_OF_ASC_NODE":"225.3642","INCLINATION":"53.0544","EPOCH":"2022-02-28T18:24:37.338912","SITE":"AFETR","ECCENTRICITY":"0.00015810","MEAN_ANOMALY":"286.5944","ELEMENT_SET_NO":"999","CLASSIFICATION_TYPE":"U","DECAY_DATE":null,"REV_AT_EPOCH":"10353","OBJECT_TYPE":"PAYLOAD","TLE_LINE2":"2 45548  53.0544 225.3642 0001581  73.5218 286.5944 15.06401072103530","FILE":"3334872","NORAD_CAT_ID":"45548","APOAPSIS":"548.305","COUNTRY_CODE":"US","OBJECT_ID":"2020-025T","RCS_SIZE":"LARGE","TLE_LINE1":"1 45548U 20025T   22059.76709883  .00001507  00000-0  12002-3 0  9992","BSTAR":"0.00012002000000","EPHEMERIS_TYPE":"0","MEAN_ELEMENT_THEORY":"SGP4","PERIOD":"95.592","SEMIMAJOR_AXIS":"6925.345","MEAN_MOTION_DDOT":"0.0000000000000","OBJECT_NAME":"STARLINK-1378","MEAN_MOTION_DOT":"0.00001507","TIME_SYSTEM":"UTC","ARG_OF_PERICENTER":"73.5218","REF_FRAME":"TEME","CENTER_NAME":"EARTH","GP_ID":"197409089","PERIAPSIS":"546.115","MEAN_MOTION":"15.06401072"}];
